COSMOS 2425 (716)       
1 29670U 06062A   21326.72414341  .00000016  00000+0  00000+0 0  9993
2 29670  64.8056 250.1041 0024460 344.0615 274.4062  2.13113274116048
COSMOS 2433 (720)       
1 32275U 07052A   21327.69944100 -.00000057  00000+0  00000+0 0  9992
2 32275  66.0716  11.5020 0005431 251.6375 201.4649  2.13107889109586
COSMOS 2432 (719)       
1 32276U 07052B   21327.59147447 -.00000057  00000+0  00000+0 0  9991
2 32276  66.0907  11.6018 0009476 315.4007   3.6978  2.13103360109577
COSMOS 2434 (721)       
1 32393U 07065A   21327.60545789  .00000016  00000+0  00000+0 0  9992
2 32393  64.4246 248.4597 0001772  72.4273 197.3996  2.13103058108285
COSMOS 2436 (723)       
1 32395U 07065C   21327.26897606  .00000016  00000+0  00000+0 0  9994
2 32395  64.4333 248.5260 0015583 356.0171 151.6831  2.13102869108218
COSMOS 2456 (730)       
1 36111U 09070A   21327.39068918  .00000069  00000+0  00000+0 0  9990
2 36111  64.3050 128.1294 0001679 352.4802 281.0451  2.13099196 92941
COSMOS 2457 (733)       
1 36112U 09070B   21327.09133591  .00000066  00000+0  00000+0 0  9995
2 36112  64.2883 128.0206 0006879 148.0414  21.4827  2.13101382 92946
COSMOS 2459 (731)       
1 36400U 10007A   21327.41216854 -.00000057  00000+0  00000+0 0  9998
2 36400  65.9718  10.4119 0025636 345.4647 107.5517  2.13111510 91294
COSMOS 2461 (735)       
1 36401U 10007B   21327.30403862 -.00000057  00000+0  00000+0 0  9994
2 36401  65.9667  10.3807 0018207   2.4431   4.9600  2.13103574 91304
COSMOS 2460 (732)       
1 36402U 10007C   21327.36227454 -.00000057  00000+0  00000+0 0  9992
2 36402  65.9532  10.3331 0002052 223.3095 135.2005  2.13106410 91296
COSMOS 2464 (736)       
1 37139U 10041C   21327.33058470  .00000016  00000+0  00000+0 0  9999
2 37139  64.0234 247.6466 0028556   7.7002 271.0007  2.13100744 87353
COSMOS 2471 (701K)      
1 37372U 11009A   21327.20944093 -.00000058  00000+0  00000+0 0  9991
2 37372  65.9473  10.2663 0017462 230.1674 134.8814  2.13062620 83573
COSMOS 2476 (744)       
1 37867U 11064A   21327.43037582  .00000071  00000+0  00000+0 0  9996
2 37867  64.5980 129.4041 0019612 230.1758 337.4887  2.13101901 78295
COSMOS 2477 (745)       
1 37868U 11064B   21327.38059322  .00000070  00000+0  00000+0 0  9996
2 37868  64.6062 129.4679 0016903 230.7303 116.9912  2.13101613 78241
COSMOS 2475 (743)       
1 37869U 11064C   21327.50844330  .00000072  00000+0  00000+0 0  9994
2 37869  64.6130 129.4699 0020303 252.7542 150.9126  2.13101890 78262
COSMOS 2485 (747)       
1 39155U 13019A   21327.57258697  .00000073  00000+0  00000+0 0  9999
2 39155  64.7630 129.7824 0020228 226.1424 135.0852  2.13101861 66772
COSMOS 2492 (754)       
1 39620U 14012A   21327.45583050 -.00000057  00000+0  00000+0 0  9994
2 39620  65.8414  10.0398 0012898 313.6913 352.5930  2.13103156 59716
COSMOS 2500 (755)       
1 40001U 14032A   21327.23579709 -.00000058  00000+0  00000+0 0  9994
2 40001  65.7820   9.9234 0008387 208.1339 148.5587  2.13102273 57926
COSMOS 2501 (702K)      
1 40315U 14075A   21327.10334352  .00000016  00000+0  00000+0 0  9991
2 40315  63.7343 248.4023 0017605 211.9064 210.2112  2.13101255 54330
COSMOS 2514 (751)       
1 41330U 16008A   21327.38415007 -.00000058  00000+0  00000+0 0  9991
2 41330  65.5827   9.6619 0012100 215.9733  77.9765  2.13102752 45093
COSMOS 2516 (753)       
1 41554U 16032A   21327.38951208  .00000015  00000+0  00000+0 0  9996
2 41554  63.9598 248.6095 0013909 221.1794 335.6422  2.13106680 42708
COSMOS 2522 (752)       
1 42939U 17055A   21327.19452942  .00000016  00000+0  00000+0 0  9991
2 42939  64.1931 248.9512 0008309 250.9669  16.3067  2.13102029 32458
COSMOS 2527 (756)       
1 43508U 18053A   21327.29102078  .00000070  00000+0  00000+0 0  9996
2 43508  64.9264 129.7491 0006911 211.7392 161.6815  2.13102493 26751
COSMOS 2529 (757)       
1 43687U 18086A   21327.26240755  .00000016  00000+0  00000+0 0  9992
2 43687  64.4078 249.2098 0010864 271.3189   3.5717  2.13102078 23768
COSMOS 2534 (758)       
1 44299U 19030A   21327.06425866  .00000016  00000+0  00000+0 0  9998
2 44299  64.4791 249.0821 0013653 288.9276 328.6676  2.13101835 19403
COSMOS 2544 (759)       
1 44850U 19088A   21327.36501384  .00000071  00000+0  00000+0 0  9998
2 44850  64.9116 129.6032 0009851 253.2224 220.5825  2.13102257 15188
COSMOS 2545 (760)       
1 45358U 20018A   21327.50288678 -.00000059  00000+0  00000+0 0  9998
2 45358  64.9187  10.4332 0011024 244.0899 185.2759  2.13102608 13148
